{"type": "FeatureCollection", "features": [ {"type": "Feature", "properties": {"norad_id": 66581, "name": "STARLINK-35744", "group": "last-30-days", "lat": 39.89104681934836, "lon": -63.43830384248722, "alt_km": 337.71778759757217, "timestamp": "2025-12-02T17:49:10.800797+00:00", "meta": {"OBJECT_NAME": "STARLINK-35744", "OBJECT_ID": "2025-268AA", "EPOCH": "2025-12-02T12:00:05.998752", "MEAN_MOTION": 15.76516234, "ECCENTRICITY": 0.0001603, "INCLINATION": 42.9978, "RA_OF_ASC_NODE": 181.8118, "ARG_OF_PERICENTER": 266.5295, "MEAN_ANOMALY": 266.1486, "EPHEMERIS_TYPE": 0, "CLASSIFICATION_TYPE": "U", "NORAD_CAT_ID": 66581, "ELEMENT_SET_NO": 999, "REV_AT_EPOCH": 297, "BSTAR": -0.011453, "MEAN_MOTION_DOT": -0.01664892, "MEAN_MOTION_DDOT": 0}, "tle": {"line1": "1 66581U 25268AA  25336.50006943 -.01664892  00000+0 -11453-1 0  9997", "line2": "2 66581  42.9978 181.8118 0001603 266.5295 266.1486 15.76516234  2971"}}, "geometry": {"type": "Point", "coordinates": [-63.43830384248722, 39.89104681934836]}}, {"type": "Feature", "properties": {"norad_id": 66582, "name": "STARLINK-35746", "group": "last-30-days", "lat": 39.27104277988647, "lon": -61.0115059651552, "alt_km": 338.1034360407175, "timestamp": "2025-12-02T17:49:10.800806+00:00", "meta": {"OBJECT_NAME": "STARLINK-35746", "OBJECT_ID": "2025-268AB", "EPOCH": "2025-12-02T12:00:05.998752", "MEAN_MOTION": 15.7642791, "ECCENTRICITY": 0.0001494, "INCLINATION": 42.9979, "RA_OF_ASC_NODE": 181.8068, "ARG_OF_PERICENTER": 278.3926, "MEAN_ANOMALY": 256.3365, "EPHEMERIS_TYPE": 0, "CLASSIFICATION_TYPE": "U", "NORAD_CAT_ID": 66582, "ELEMENT_SET_NO": 999, "REV_AT_EPOCH": 302, "BSTAR": -0.011691, "MEAN_MOTION_DOT": -0.01689532, "MEAN_MOTION_DDOT": 0}, "tle": {"line1": "1 66582U 25268AB  25336.50006943 -.01689532  00000+0 -11691-1 0  9990", "line2": "2 66582  42.9979 181.8068 0001494 278.3926 256.3365 15.76427910  3023"}}, "geometry": {"type": "Point", "coordinates": [-61.0115059651552, 39.27104277988647]}}, {"type": "Feature", "properties": {"norad_id": 66583, "name": "STARLINK-35941", "group": "last-30-days", "lat": 38.61209559545677, "lon": -58.66637635207344, "alt_km": 338.3023803095348, "timestamp": "2025-12-02T17:49:10.800818+00:00", "meta": {"OBJECT_NAME": "STARLINK-35941", "OBJECT_ID": "2025-268AC", "EPOCH": "2025-12-02T12:00:05.998752", "MEAN_MOTION": 15.76325623, "ECCENTRICITY": 0.0001523, "INCLINATION": 42.9979, "RA_OF_ASC_NODE": 181.8014, "ARG_OF_PERICENTER": 273.6232, "MEAN_ANOMALY": 263.113, "EPHEMERIS_TYPE": 0, "CLASSIFICATION_TYPE": "U", "NORAD_CAT_ID": 66583, "ELEMENT_SET_NO": 999, "REV_AT_EPOCH": 302, "BSTAR": -0.010984, "MEAN_MOTION_DOT": -0.0156186, "MEAN_MOTION_DDOT": 0}, "tle": {"line1": "1 66583U 25268AC  25336.50006943 -.01561860  00000+0 -10984-1 0  9998", "line2": "2 66583  42.9979 181.8014 0001523 273.6232 263.1130 15.76325623  3020"}}, "geometry": {"type": "Point", "coordinates": [-58.66637635207344, 38.61209559545677]}}, {"type": "Feature", "properties": {"norad_id": 66584, "name": "STARLINK-35939", "group": "last-30-days", "lat": 37.91544974664945, "lon": -56.39075664436935, "alt_km": 338.42572011691846, "timestamp": "2025-12-02T17:49:10.800828+00:00", "meta": {"OBJECT_NAME": "STARLINK-35939", "OBJECT_ID": "2025-268AD", "EPOCH": "2025-12-02T12:00:05.998752", "MEAN_MOTION": 15.76249796, "ECCENTRICITY": 0.0001572, "INCLINATION": 42.9981, "RA_OF_ASC_NODE": 181.7967, "ARG_OF_PERICENTER": 270.3003, "MEAN_ANOMALY": 268.3953, "EPHEMERIS_TYPE": 0, "CLASSIFICATION_TYPE": "U", "NORAD_CAT_ID": 66584, "ELEMENT_SET_NO": 999, "REV_AT_EPOCH": 302, "BSTAR": -0.010199, "MEAN_MOTION_DOT": -0.01459155, "MEAN_MOTION_DDOT": 0}, "tle": {"line1": "1 66584U 25268AD  25336.50006943 -.01459155  00000+0 -10199-1 0  9990", "line2": "2 66584  42.9981 181.7967 0001572 270.3003 268.3953 15.76249796  3020"}}, "geometry": {"type": "Point", "coordinates": [-56.39075664436935, 37.91544974664945]}}, {"type": "Feature", "properties": {"norad_id": 66585, "name": "STARLINK-35963", "group": "last-30-days", "lat": 37.16801453072962, "lon": -54.13764954894106, "alt_km": 338.77656143557033, "timestamp": "2025-12-02T17:49:10.800838+00:00", "meta": {"OBJECT_NAME": "STARLINK-35963", "OBJECT_ID": "2025-268AE", "EPOCH": "2025-12-02T12:00:05.998752", "MEAN_MOTION": 15.76200938, "ECCENTRICITY": 0.0001804, "INCLINATION": 42.998, "RA_OF_ASC_NODE": 181.7922, "ARG_OF_PERICENTER": 265.368, "MEAN_ANOMALY": 275.3148, "EPHEMERIS_TYPE": 0, "CLASSIFICATION_TYPE": "U", "NORAD_CAT_ID": 66585, "ELEMENT_SET_NO": 999, "REV_AT_EPOCH": 302, "BSTAR": -0.010328, "MEAN_MOTION_DOT": -0.01472697, "MEAN_MOTION_DDOT": 0}, "tle": {"line1": "1 66585U 25268AE  25336.50006943 -.01472697  00000+0 -10328-1 0  9991", "line2": "2 66585  42.9980 181.7922 0001804 265.3680 275.3148 15.76200938  3023"}}, "geometry": {"type": "Point", "coordinates": [-54.13764954894106, 37.16801453072962]}}, {"type": "Feature", "properties": {"norad_id": 66586, "name": "TJS-21", "group": "last-30-days", "lat": 42.06745631183613, "lon": -140.73837774209503, "alt_km": 36910.26681318354, "timestamp": "2025-12-02T17:49:10.800852+00:00", "meta": {"OBJECT_NAME": "TJS-21", "OBJECT_ID": "2025-269A", "EPOCH": "2025-11-22T00:38:56.616288", "MEAN_MOTION": 2.0099221, "ECCENTRICITY": 0.75179873, "INCLINATION": 51.0366, "RA_OF_ASC_NODE": 174.7096, "ARG_OF_PERICENTER": 225.0489, "MEAN_ANOMALY": 41.6572, "EPHEMERIS_TYPE": 0, "CLASSIFICATION_TYPE": "U", "NORAD_CAT_ID": 66586, "ELEMENT_SET_NO": 999, "REV_AT_EPOCH": 2, "BSTAR": 0.00053569978, "MEAN_MOTION_DOT": 3.197e-05, "MEAN_MOTION_DDOT": 0}, "tle": {"line1": "1 66586U 25269A   25326.02704417  .00003197  00000+0  53570-3 0  9990", "line2": "2 66586  51.0366 174.7096 7517987 225.0489  41.6572  2.00992210    24"}}, "geometry": {"type": "Point", "coordinates": [-140.73837774209503, 42.06745631183613]}}, {"type": "Feature", "properties": {"norad_id": 66587, "name": "CZ-3B R/B", "group": "last-30-days", "lat": 45.293345449739476, "lon": -134.0699806392403, "alt_km": 33602.40697159719, "timestamp": "2025-12-02T17:49:10.800870+00:00", "meta": {"OBJECT_NAME": "CZ-3B R/B", "OBJECT_ID": "2025-269B", "EPOCH": "2025-11-23T12:20:01.405824", "MEAN_MOTION": 2.01516013, "ECCENTRICITY": 0.75253415, "INCLINATION": 51.3768, "RA_OF_ASC_NODE": 174.0599, "ARG_OF_PERICENTER": 225.2938, "MEAN_ANOMALY": 41.2116, "EPHEMERIS_TYPE": 0, "CLASSIFICATION_TYPE": "U", "NORAD_CAT_ID": 66587, "ELEMENT_SET_NO": 999, "REV_AT_EPOCH": 6, "BSTAR": 0.00049596604, "MEAN_MOTION_DOT": 0.0001032, "MEAN_MOTION_DDOT": -9.13844e-07}, "tle": {"line1": "1 66587U 25269B   25327.51390516  .00010320 -91384-6  49597-3 0  9990", "line2": "2 66587  51.3768 174.0599 7525341 225.2938  41.2116  2.01516013    67"}}, "geometry": {"type": "Point", "coordinates": [-134.0699806392403, 45.293345449739476]}}, {"type": "Feature", "properties": {"norad_id": 66588, "name": "STARLINK-36076", "group": "last-30-days", "lat": -19.022479458329407, "lon": 94.06401903571422, "alt_km": 332.3699290360919, "timestamp": "2025-12-02T17:49:10.800886+00:00", "meta": {"OBJECT_NAME": "STARLINK-36076", "OBJECT_ID": "2025-270A", "EPOCH": "2025-12-02T12:00:05.998752", "MEAN_MOTION": 15.8056807, "ECCENTRICITY": 0.0001758, "INCLINATION": 42.9989, "RA_OF_ASC_NODE": 253.8305, "ARG_OF_PERICENTER": 259.5576, "MEAN_ANOMALY": 8.2563, "EPHEMERIS_TYPE": 0, "CLASSIFICATION_TYPE": "U", "NORAD_CAT_ID": 66588, "ELEMENT_SET_NO": 999, "REV_AT_EPOCH": 275, "BSTAR": -0.0090246, "MEAN_MOTION_DOT": -0.01558503, "MEAN_MOTION_DDOT": 0}, "tle": {"line1": "1 66588U 25270A   25336.50006943 -.01558503  00000+0 -90246-2 0  9996", "line2": "2 66588  42.9989 253.8305 0001758 259.5576   8.2563 15.80568070  2750"}}, "geometry": {"type": "Point", "coordinates": [94.06401903571422, -19.022479458329407]}}, {"type": "Feature", "properties": {"norad_id": 66589, "name": "STARLINK-35447", "group": "last-30-days", "lat": -21.356498992971954, "lon": 97.15100121100042, "alt_km": 332.2755129736097, "timestamp": "2025-12-02T17:49:10.800898+00:00", "meta": {"OBJECT_NAME": "STARLINK-35447", "OBJECT_ID": "2025-270B", "EPOCH": "2025-12-02T12:00:05.998752", "MEAN_MOTION": 15.80615525, "ECCENTRICITY": 0.0001803, "INCLINATION": 42.9987, "RA_OF_ASC_NODE": 253.8212, "ARG_OF_PERICENTER": 254.4694, "MEAN_ANOMALY": 17.0335, "EPHEMERIS_TYPE": 0, "CLASSIFICATION_TYPE": "U", "NORAD_CAT_ID": 66589, "ELEMENT_SET_NO": 999, "REV_AT_EPOCH": 286, "BSTAR": -0.0090739, "MEAN_MOTION_DOT": -0.01569015, "MEAN_MOTION_DDOT": 0}, "tle": {"line1": "1 66589U 25270B   25336.50006943 -.01569015  00000+0 -90739-2 0  9994", "line2": "2 66589  42.9987 253.8212 0001803 254.4694  17.0335 15.80615525  2867"}}, "geometry": {"type": "Point", "coordinates": [97.15100121100042, -21.356498992971954]}}, {"type": "Feature", "properties": {"norad_id": 66590, "name": "STARLINK-35429", "group": "last-30-days", "lat": -20.139346887210884, "lon": 95.52089774841134, "alt_km": 332.3399842305553, "timestamp": "2025-12-02T17:49:10.800908+00:00", "meta": {"OBJECT_NAME": "STARLINK-35429", "OBJECT_ID": "2025-270C", "EPOCH": "2025-12-02T12:00:05.998752", "MEAN_MOTION": 15.80600203, "ECCENTRICITY": 0.0001752, "INCLINATION": 42.9988, "RA_OF_ASC_NODE": 253.8263, "ARG_OF_PERICENTER": 259.4564, "MEAN_ANOMALY": 10.102, "EPHEMERIS_TYPE": 0, "CLASSIFICATION_TYPE": "U", "NORAD_CAT_ID": 66590, "ELEMENT_SET_NO": 999, "REV_AT_EPOCH": 286, "BSTAR": -0.0089923, "MEAN_MOTION_DOT": -0.01555649, "MEAN_MOTION_DDOT": 0}, "tle": {"line1": "1 66590U 25270C   25336.50006943 -.01555649  00000+0 -89923-2 0  9997", "line2": "2 66590  42.9988 253.8263 0001752 259.4564  10.1020 15.80600203  2862"}}, "geometry": {"type": "Point", "coordinates": [95.52089774841134, -20.139346887210884]}}]}